start=new Date('2022-11-07T00:00:00.000Z').valueOf();
sats=[{"EPHEMERIS_TYPE":"0","INCLINATION":"53.2187","SITE":"AFETR","DECAY_DATE":null,"MEAN_MOTION_DOT":"-0.00001840","MEAN_ELEMENT_THEORY":"SGP4","PERIAPSIS":"539.146","ARG_OF_PERICENTER":"65.5994","CLASSIFICATION_TYPE":"U","OBJECT_TYPE":"PAYLOAD","NORAD_CAT_ID":"53031","ECCENTRICITY":"0.00009570","ELEMENT_SET_NO":"999","RCS_SIZE":"MEDIUM","EPOCH":"2022-11-06T06:34:40.210464","PERIOD":"95.439","APOAPSIS":"540.470","TIME_SYSTEM":"UTC","LAUNCH_DATE":"2022-07-07","RA_OF_ASC_NODE":"148.2921","TLE_LINE2":"2 53031  53.2187 148.2921 0000957  65.5994 294.5098 15.08819375 19033","TLE_LINE1":"1 53031U 22076AX  22310.27407651 -.00001840  00000-0 -97641-4 0  9995","REF_FRAME":"TEME","FILE":"3647066","OBJECT_NAME":"STARLINK-4137","MEAN_ANOMALY":"294.5098","COUNTRY_CODE":"US","GP_ID":"217058969","MEAN_MOTION":"15.08819375","SEMIMAJOR_AXIS":"6917.943","MEAN_MOTION_DDOT":"0.0000000000000","CENTER_NAME":"EARTH","OBJECT_ID":"2022-076AX","REV_AT_EPOCH":"1903","BSTAR":"-0.00009764100000"},{"EPHEMERIS_TYPE":"0","INCLINATION":"53.2167","SITE":"AFETR","DECAY_DATE":null,"MEAN_MOTION_DOT":"0.00000286","MEAN_ELEMENT_THEORY":"SGP4","PERIAPSIS":"538.638","ARG_OF_PERICENTER":"69.7860","CLASSIFICATION_TYPE":"U","OBJECT_TYPE":"PAYLOAD","ELEMENT_SET_NO":"999","ECCENTRICITY":"0.00016490","NORAD_CAT_ID":"53032","RCS_SIZE":"LARGE","PERIOD":"95.438","EPOCH":"2022-11-06T19:58:49.031616","APOAPSIS":"540.919","TIME_SYSTEM":"UTC","LAUNCH_DATE":"2022-07-07","RA_OF_ASC_NODE":"155.7664","TLE_LINE2":"2 53032  53.2167 155.7664 0001649  69.7860 290.3310 15.08829226 19459","TLE_LINE1":"1 53032U 22076AY  22310.83251194  .00000286  00000-0  36048-4 0  9992","REF_FRAME":"TEME","FILE":"3647297","OBJECT_NAME":"STARLINK-4115","MEAN_ANOMALY":"290.3310","COUNTRY_CODE":"US","GP_ID":"217065594","MEAN_MOTION":"15.08829226","SEMIMAJOR_AXIS":"6917.913","MEAN_MOTION_DDOT":"0.0000000000000","CENTER_NAME":"EARTH","OBJECT_ID":"2022-076AY","REV_AT_EPOCH":"1945","BSTAR":"0.00003604800000"},{"COUNTRY_CODE":"US","MEAN_ANOMALY":"291.1749","OBJECT_NAME":"STARLINK-4167","TLE_LINE1":"1 53033U 22076AZ  22310.87388984 -.00010413  00000-0 -63613-3 0  9997","FILE":"3647297","REF_FRAME":"TEME","OBJECT_ID":"2022-076AZ","REV_AT_EPOCH":"1959","BSTAR":"-0.00063613000000","CENTER_NAME":"EARTH","SEMIMAJOR_AXIS":"6917.715","MEAN_MOTION_DDOT":"0.0000000000000","GP_ID":"217065225","MEAN_MOTION":"15.08894171","ARG_OF_PERICENTER":"68.9389","CLASSIFICATION_TYPE":"U","PERIAPSIS":"538.639","MEAN_ELEMENT_THEORY":"SGP4","MEAN_MOTION_DOT":"-0.00010413","DECAY_DATE":null,"SITE":"AFETR","EPHEMERIS_TYPE":"0","INCLINATION":"53.2160","RA_OF_ASC_NODE":"145.5994","TLE_LINE2":"2 53033  53.2160 145.5994 0001360  68.9389 291.1749 15.08894171 19594","LAUNCH_DATE":"2022-07-07","TIME_SYSTEM":"UTC","APOAPSIS":"540.521","PERIOD":"95.434","EPOCH":"2022-11-06T20:58:24.082176","RCS_SIZE":"LARGE","ECCENTRICITY":"0.00013600","ELEMENT_SET_NO":"999","NORAD_CAT_ID":"53033","OBJECT_TYPE":"PAYLOAD"},{"DECAY_DATE":null,"MEAN_MOTION_DOT":"-0.00001225","EPHEMERIS_TYPE":"0","INCLINATION":"53.2143","SITE":"AFETR","PERIAPSIS":"538.782","ARG_OF_PERICENTER":"86.3300","CLASSIFICATION_TYPE":"U","MEAN_ELEMENT_THEORY":"SGP4","RCS_SIZE":"LARGE","EPOCH":"2022-11-06T13:06:47.745216","PERIOD":"95.438","OBJECT_TYPE":"PAYLOAD","NORAD_CAT_ID":"53034","ELEMENT_SET_NO":"999","ECCENTRICITY":"0.00014300","LAUNCH_DATE":"2022-07-07","RA_OF_ASC_NODE":"147.0672","TLE_LINE2":"2 53034  53.2143 147.0672 0001430  86.3300 273.7856 15.08831429 19076","APOAPSIS":"540.761","TIME_SYSTEM":"UTC","OBJECT_NAME":"STARLINK-4151","REF_FRAME":"TEME","TLE_LINE1":"1 53034U 22076BA  22310.54638594 -.00001225  00000-0 -58932-4 0  9997","FILE":"3647066","COUNTRY_CODE":"US","MEAN_ANOMALY":"273.7856","GP_ID":"217059214","MEAN_MOTION":"15.08831429","CENTER_NAME":"EARTH","OBJECT_ID":"2022-076BA","BSTAR":"-0.00005893200000","REV_AT_EPOCH":"1907","SEMIMAJOR_AXIS":"6917.907","MEAN_MOTION_DDOT":"0.0000000000000"},{"EPHEMERIS_TYPE":"0","INCLINATION":"53.2172","SITE":"AFETR","DECAY_DATE":null,"MEAN_MOTION_DOT":"-0.00000263","MEAN_ELEMENT_THEORY":"SGP4","PERIAPSIS":"538.742","ARG_OF_PERICENTER":"64.2238","CLASSIFICATION_TYPE":"U","OBJECT_TYPE":"PAYLOAD","NORAD_CAT_ID":"53035","ECCENTRICITY":"0.00015100","ELEMENT_SET_NO":"999","RCS_SIZE":"LARGE","PERIOD":"95.438","EPOCH":"2022-11-06T12:50:54.628800","APOAPSIS":"540.831","TIME_SYSTEM":"UTC","LAUNCH_DATE":"2022-07-07","RA_OF_ASC_NODE":"147.1191","TLE_LINE2":"2 53035  53.2172 147.1191 0001510  64.2238 295.8910 15.08826658 19074","FILE":"3647066","TLE_LINE1":"1 53035U 22076BB  22310.53535450 -.00000263  00000-0  15733-5 0  9997","REF_FRAME":"TEME","OBJECT_NAME":"STARLINK-4157","MEAN_ANOMALY":"295.8910","COUNTRY_CODE":"US","GP_ID":"217059387","MEAN_MOTION":"15.08826658","SEMIMAJOR_AXIS":"6917.921","MEAN_MOTION_DDOT":"0.0000000000000","CENTER_NAME":"EARTH","OBJECT_ID":"2022-076BB","REV_AT_EPOCH":"1907","BSTAR":"0.00000157330000"},{"MEAN_ANOMALY":"297.3732","COUNTRY_CODE":"US","TLE_LINE1":"1 53036U 22076BC  22310.86286185 -.00001579  00000-0 -81107-4 0  9991","REF_FRAME":"TEME","FILE":"3647297","OBJECT_NAME":"STARLINK-4155","SEMIMAJOR_AXIS":"6917.851","MEAN_MOTION_DDOT":"0.0000000000000","CENTER_NAME":"EARTH","REV_AT_EPOCH":"1958","BSTAR":"-0.00008110700000","OBJECT_ID":"2022-076BC","MEAN_MOTION":"15.08849658","GP_ID":"217065591","MEAN_ELEMENT_THEORY":"SGP4","PERIAPSIS":"538.646","CLASSIFICATION_TYPE":"U","ARG_OF_PERICENTER":"62.7418","INCLINATION":"53.2177","EPHEMERIS_TYPE":"0","SITE":"AFETR","DECAY_DATE":null,"MEAN_MOTION_DOT":"-0.00001579","APOAPSIS":"540.786","TIME_SYSTEM":"UTC","LAUNCH_DATE":"2022-07-07","TLE_LINE2":"2 53036  53.2177 145.6474 0001547  62.7418 297.3732 15.08849658 19580","RA_OF_ASC_NODE":"145.6474","OBJECT_TYPE":"PAYLOAD","ECCENTRICITY":"0.00015470","NORAD_CAT_ID":"53036","ELEMENT_SET_NO":"999","RCS_SIZE":"MEDIUM","EPOCH":"2022-11-06T20:42:31.263840","PERIOD":"95.437"},{"OBJECT_NAME":"STARLINK-4153","FILE":"3647066","TLE_LINE1":"1 53037U 22076BD  22310.52800024  .00000346  00000-0  39858-4 0  9994","REF_FRAME":"TEME","COUNTRY_CODE":"US","MEAN_ANOMALY":"302.0008","MEAN_MOTION":"15.08827212","GP_ID":"217059834","BSTAR":"0.00003985800000","REV_AT_EPOCH":"1907","OBJECT_ID":"2022-076BD","CENTER_NAME":"EARTH","MEAN_MOTION_DDOT":"0.0000000000000","SEMIMAJOR_AXIS":"6917.919","MEAN_MOTION_DOT":"0.00000346","DECAY_DATE":null,"SITE":"AFETR","INCLINATION":"53.2182","EPHEMERIS_TYPE":"0","CLASSIFICATION_TYPE":"U","ARG_OF_PERICENTER":"58.1108","PERIAPSIS":"538.905","MEAN_ELEMENT_THEORY":"SGP4","PERIOD":"95.438","EPOCH":"2022-11-06T12:40:19.220736","RCS_SIZE":"LARGE","ELEMENT_SET_NO":"999","NORAD_CAT_ID":"53037","ECCENTRICITY":"0.00012710","OBJECT_TYPE":"PAYLOAD","TLE_LINE2":"2 53037  53.2182 147.1384 0001271  58.1108 302.0008 15.08827212 19079","RA_OF_ASC_NODE":"147.1384","LAUNCH_DATE":"2022-07-07","TIME_SYSTEM":"UTC","APOAPSIS":"540.664"},{"CLASSIFICATION_TYPE":"U","ARG_OF_PERICENTER":"62.3759","PERIAPSIS":"538.761","MEAN_ELEMENT_THEORY":"SGP4","MEAN_MOTION_DOT":"-0.00003232","DECAY_DATE":null,"SITE":"AFETR","INCLINATION":"53.2183","EPHEMERIS_TYPE":"0","TLE_LINE2":"2 53038  53.2183 149.5338 0001467  62.3759 297.7382 15.08830002 18998","RA_OF_ASC_NODE":"149.5338","LAUNCH_DATE":"2022-07-07","TIME_SYSTEM":"UTC","APOAPSIS":"540.791","EPOCH":"2022-11-05T23:51:55.246752","PERIOD":"95.438","RCS_SIZE":"LARGE","NORAD_CAT_ID":"53038","ECCENTRICITY":"0.00014670","ELEMENT_SET_NO":"999","OBJECT_TYPE":"PAYLOAD","COUNTRY_CODE":"US","MEAN_ANOMALY":"297.7382","OBJECT_NAME":"STARLINK-4156","TLE_LINE1":"1 53038U 22076BE  22309.99438943 -.00003232  00000-0 -18513-3 0  9994","REF_FRAME":"TEME","FILE":"3647066","REV_AT_EPOCH":"1899","BSTAR":"-0.00018513000000","OBJECT_ID":"2022-076BE","CENTER_NAME":"EARTH","SEMIMAJOR_AXIS":"6917.911","MEAN_MOTION_DDOT":"0.0000000000000","MEAN_MOTION":"15.08830002","GP_ID":"217058797"},{"LAUNCH_DATE":"2022-07-11","TLE_LINE2":"2 53043  97.6545 130.0460 0002886  26.1027 334.0342 15.01265681 17337","RA_OF_ASC_NODE":"130.0460","APOAPSIS":"564.998","TIME_SYSTEM":"UTC","RCS_SIZE":"LARGE","PERIOD":"95.919","EPOCH":"2022-11-06T18:30:04.101984","OBJECT_TYPE":"PAYLOAD","NORAD_CAT_ID":"53043","ELEMENT_SET_NO":"999","ECCENTRICITY":"0.00028860","PERIAPSIS":"560.991","CLASSIFICATION_TYPE":"U","ARG_OF_PERICENTER":"26.1027","MEAN_ELEMENT_THEORY":"SGP4","DECAY_DATE":null,"MEAN_MOTION_DOT":"0.00000079","INCLINATION":"97.6545","EPHEMERIS_TYPE":"0","SITE":"AFWTR","CENTER_NAME":"EARTH","BSTAR":"0.00001071200000","REV_AT_EPOCH":"1733","OBJECT_ID":"2022-077A","MEAN_MOTION_DDOT":"0.0000000000000","SEMIMAJOR_AXIS":"6941.129","MEAN_MOTION":"15.01265681","GP_ID":"217062587","COUNTRY_CODE":"US","MEAN_ANOMALY":"334.0342","OBJECT_NAME":"STARLINK-4362","TLE_LINE1":"1 53043U 22077A   22310.77088081  .00000079  00000-0  10712-4 0  9991","REF_FRAME":"TEME","FILE":"3647179"},{"INCLINATION":"97.6529","EPHEMERIS_TYPE":"0","SITE":"AFWTR","DECAY_DATE":null,"MEAN_MOTION_DOT":"0.00001220","MEAN_ELEMENT_THEORY":"SGP4","PERIAPSIS":"560.927","CLASSIFICATION_TYPE":"U","ARG_OF_PERICENTER":"30.3779","OBJECT_TYPE":"PAYLOAD","ELEMENT_SET_NO":"999","NORAD_CAT_ID":"53044","ECCENTRICITY":"0.00030250","RCS_SIZE":"LARGE","PERIOD":"95.920","EPOCH":"2022-11-06T12:00:49.825152","APOAPSIS":"565.126","TIME_SYSTEM":"UTC","LAUNCH_DATE":"2022-07-11","TLE_LINE2":"2 53044  97.6529 129.7752 0003025  30.3779 329.7620 15.01255263 18006","RA_OF_ASC_NODE":"129.7752","TLE_LINE1":"1 53044U 22077B   22310.50057668  .00001220  00000-0  99534-4 0  9998","REF_FRAME":"TEME","FILE":"3647066","OBJECT_NAME":"STARLINK-4349","MEAN_ANOMALY":"329.7620","COUNTRY_CODE":"US","MEAN_MOTION":"15.01255263","GP_ID":"217059042","SEMIMAJOR_AXIS":"6941.161","MEAN_MOTION_DDOT":"0.0000000000000","CENTER_NAME":"EARTH","BSTAR":"0.00009953400000","REV_AT_EPOCH":"1800","OBJECT_ID":"2022-077B"}];
